******************************************************************************* Revised: Sep 29, 2017              Jupiter                                 599  PHYSICAL DATA (updated 2009-Jan-28):  Mass (10^24 kg)       =  1898.13+-.19   Density (g/cm^3)       =  1.326  Equat. radius (1 bar) = 71492+-4 km     Polar radius (km)      = 66854+-10  Volumetric mean radius= 69911+-6 km     Flattening             =  0.06487  Rotation period       = 9h 55m 29.685s  Rot. rate(10^-4 rad/s) =  1.75865  m = w^2a^3/GM         =  0.089195       Hydrostatic flat., fh  =  0.06509  Inferred rot. period  =  9.894+-0.02 hr ks = 3*J2/m            =  0.494  Mom. of inert. I/MRo^2=  0.254          I/MRo^2 (upper bound)  =  0.267   Rocky core mass (Mc/M)=  0.0261         Y factor (He/H ratio)  =  0.18+-0.04  GM (km^3/s^2)         = 126,686,511     GM 1-sigma (km^3/s^2)  = +-100  Equ. grav, ge (m/s^2) = 24.79           Pol. grav, gp (m/s^2)  = 28.34  Geometric albedo      =  0.52           Visual magnitude V(1,0)= -9.40  Vis. mag. (opposition)= -2.70           Obliquity to orbit     =  3.12 deg  Sidereal orbit period = 11.862615 yr    Sidereal orbit period  = 4332.820 d  Mean daily motion     = 0.0831294 deg/d Mean orbit velocity    = 13.0697 km/s  Atmos. temp. (1 bar)  = 165+-5 K        Heat flow/mass (x10^7) = 15 erg/gm*s  Planetary Solar Const =  50.5 W/m^2     Dipole tilt/offset     = 9.6deg/0.1Rp   Escape velocity (km/s)=  59.5           Mag.dip.mom(gauss-Rp^3)= 4.2   A_roche(ice)/Rp       =  2.76           Hill's sphere rad. Rp  = 740*******************************************************************************  *******************************************************************************Ephemeris / WWW_USER Fri Oct 20 04:45:01 2017 Pasadena, USA      / Horizons    *******************************************************************************Target body name: Jupiter (599)                   {source: jup341}Center body name: Mercury (199)                   {source: DE431mx}Center-site name: (user defined site below)*******************************************************************************Start time      : A.D. 2017-Oct-04 00:00:00.0000 TDBStop  time      : A.D. 2017-Oct-05 00:00:00.0000 TDBStep-size       : 0 steps*******************************************************************************Center geodetic : -360.00000,0.00000000,0.0000000 {E-lon(deg),Lat(deg),Alt(km)}Center cylindric: -360.00000,2439.70000,0.0000000 {E-lon(deg),Dxy(km),Dz(km)}Center pole/equ : IAU_MERCURY                     {East-longitude -}Center radii    : 2439.7 x 2439.7 x 2439.7 km     {Equator, meridian, pole}    Output units    : AU-D                                                         Output type     : GEOMETRIC cartesian statesOutput format   : 3 (position, velocity, LT, range, range-rate)Reference frame : ICRF/J2000.0                                                 Coordinate systm: Ecliptic and Mean Equinox of Reference Epoch                 *******************************************************************************JDTDB   X     Y     Z   VX    VY    VZ   LT    RG    RR*******************************************************************************$$SOE2458030.500000000 = A.D. 2017-Oct-04 00:00:00.0000 TDB  X =-4.256626804361080E+00 Y =-2.868197076870578E+00 Z = 7.900082201153862E-02 VX= 1.118281447057823E-02 VY= 2.080737970677697E-02 VZ= 1.464261846896160E-03 LT= 2.964797368067945E-02 RG= 5.133387512476790E+00 RR=-2.087608919567491E-02$$EOE*******************************************************************************Coordinate system description:  Ecliptic and Mean Equinox of Reference Epoch    Reference epoch: J2000.0    XY-plane: plane of the Earth's orbit at the reference epoch              Note: obliquity of 84381.448 arcseconds wrt ICRF equator (IAU76)    X-axis  : out along ascending node of instantaneous plane of the Earth's              orbit and the Earth's mean equator at the reference epoch    Z-axis  : perpendicular to the xy-plane in the directional (+ or -) sense              of Earth's north pole at the reference epoch.  Symbol meaning [1 au= 149597870.700 km, 1 day= 86400.0 s]:    JDTDB    Julian Day Number, Barycentric Dynamical Time      X      X-component of position vector (au)                                     Y      Y-component of position vector (au)                                     Z      Z-component of position vector (au)                                     VX     X-component of velocity vector (au/day)                                 VY     Y-component of velocity vector (au/day)                                 VZ     Z-component of velocity vector (au/day)                                 LT     One-way down-leg Newtonian light-time (day)                             RG     Range; distance from coordinate center (au)                             RR     Range-rate; radial velocity wrt coord. center (au/day)            Geometric states/elements have no aberrations applied. Computations by ...     Solar System Dynamics Group, Horizons On-Line Ephemeris System     4800 Oak Grove Drive, Jet Propulsion Laboratory     Pasadena, CA  91109   USA     Information: http://ssd.jpl.nasa.gov/     Connect    : telnet://ssd.jpl.nasa.gov:6775  (via browser)                  http://ssd.jpl.nasa.gov/?horizons                  telnet ssd.jpl.nasa.gov 6775    (via command-line)     Author     : Jon.D.Giorgini@jpl.nasa.gov*******************************************************************************